NORAD_CAT_ID,OBJECT_NAME,OBJECT_TYPE,EPOCH,MEAN_MOTION,ECCENTRICITY,INCLINATION,RA_OF_ASC_NODE,ARG_OF_PERICENTER,MEAN_ANOMALY,BSTAR,MEAN_MOTION_DOT,MEAN_MOTION_DDOT,TLE_LINE0,TLE_LINE1,TLE_LINE2,SEMIMAJOR_AXIS,PERIOD,APOGEE,PERIGEE,DECAYED
51739.0,STARLINK-3516,PAYLOAD,2022-09-15 14:00:01,15.08856467,0.0001802,53.2172,265.3398,42.3289,42.8088,-0.00071138,-0.00011597,0.0,0 STARLINK-3516,1 51739U 22016AB  22258.58334491 -.00011597  00000-0 -71138-3 0  9990,2 51739  53.2172 265.3398 0001802  42.3289  42.8088 15.08856467  1306,6917.83,95.437,540.942,538.448,0.0
51739.0,STARLINK-3516,PAYLOAD,2022-09-15 16:00:00,15.08876107,0.0001736,53.2173,264.9652,44.5994,133.4357,-0.0038012,-0.00060338,0.0,0 STARLINK-3516,1 51739U 22016AB  22258.66667824 -.00060338  00000-0 -38012-2 0  9998,2 51739  53.2173 264.9652 0001736  44.5994 133.4357 15.08876107  1307,6917.77,95.435,540.836,538.434,0.0
51739.0,STARLINK-3516,PAYLOAD,2022-09-15 23:09:47,15.0884469,0.0001696,53.2179,263.6255,48.9718,311.142,7.9833e-05,9.83e-06,0.0,0 STARLINK-3516,1 51739U 22016AB  22258.96513134  .00000983  00000-0  79833-4 0  9991,2 51739  53.2179 263.6255 0001696  48.9718 311.1420 15.08844690 32846,6917.866,95.437,540.904,538.558,0.0
51739.0,STARLINK-3516,PAYLOAD,2022-09-16 05:31:20,15.08834189,0.0001556,53.2179,262.4359,51.2016,308.9115,-9.3746e-06,-4.37e-06,0.0,0 STARLINK-3516,1 51739U 22016AB  22259.23010075 -.00000437  00000-0 -93746-5 0  9994,2 51739  53.2179 262.4359 0001556  51.2016 308.9115 15.08834189 32882,6917.898,95.438,540.84,538.687,0.0
51739.0,STARLINK-3516,PAYLOAD,2022-09-16 10:17:30,15.08834383,0.0001644,53.2183,261.5443,47.8833,312.2298,1.592e-06,-2.63e-06,0.0,0 STARLINK-3516,1 51739U 22016AB  22259.42882098 -.00000263  00000-0  15920-5 0  9991,2 51739  53.2183 261.5443 0001644  47.8833 312.2298 15.08834383 31792,6917.898,95.438,540.9,538.625,0.0
51739.0,STARLINK-3516,PAYLOAD,2022-09-16 16:39:02,15.08835082,0.0001409,53.2181,260.3541,56.6289,303.4838,-3.4028e-05,-8.29e-06,0.0,0 STARLINK-3516,1 51739U 22016AB  22259.69378156 -.00000829  00000-0 -34028-4 0  9993,2 51739  53.2181 260.3541 0001409  56.6289 303.4838 15.08835082 31832,6917.895,95.438,540.735,538.786,0.0
51739.0,STARLINK-3516,PAYLOAD,2022-09-17 03:46:45,15.08824859,0.0001613,53.2179,258.272,51.9655,308.1483,-5.485e-05,-1.16e-05,0.0,0 STARLINK-3516,1 51739U 22016AB  22260.15747050 -.00001160  00000-0 -54850-4 0  9993,2 51739  53.2179 258.2720 0001613  51.9655 308.1483 15.08824859 33027,6917.927,95.439,540.908,538.6759999999998,0.0
51739.0,STARLINK-3516,PAYLOAD,2022-09-17 06:57:31,15.08824375,0.0001537,53.2181,257.6779,55.0323,305.0813,-1.3055e-05,-4.96e-06,0.0,0 STARLINK-3516,1 51739U 22016AB  22260.28995083 -.00000496  00000-0 -13055-4 0  9991,2 51739  53.2181 257.6779 0001537  55.0323 305.0813 15.08824375 31922,6917.928000000001,95.439,540.856,538.73,0.0
51739.0,STARLINK-3516,PAYLOAD,2022-09-17 16:29:50,15.08827565,0.0001742,53.2181,255.8954,48.129,311.9851,-8.054399999999999e-05,-1.569e-05,0.0,0 STARLINK-3516,1 51739U 22016AB  22260.68739423 -.00001569  00000-0 -80544-4 0  9998,2 51739  53.2181 255.8954 0001742  48.1290 311.9851 15.08827565 31989,6917.918000000002,95.438,540.988,538.578,0.0
51739.0,STARLINK-3516,PAYLOAD,2022-09-18 03:37:32,15.088297400000002,0.0001732,53.219,253.8131,50.9588,309.1558,3.4362e-05,2.59e-06,0.0,0 STARLINK-3516,1 51739U 22016AB  22261.15107101  .00000259  00000-0  34362-4 0  9993,2 51739  53.2190 253.8131 0001732  50.9588 309.1558 15.08829740 33177,6917.9119999999975,95.438,540.975,538.5790000000002,0.0
51739.0,STARLINK-3516,PAYLOAD,2022-09-18 06:48:18,15.08831901,0.0001606,53.2186,253.2208,58.8367,301.2782,6.3893e-05,7.29e-06,0.0,0 STARLINK-3516,1 51739U 22016AB  22261.28354959  .00000729  00000-0  63893-4 0  9995,2 51739  53.2186 253.2208 0001606  58.8367 301.2782 15.08831901 32075,6917.905,95.438,540.881,538.659,0.0
51739.0,STARLINK-3516,PAYLOAD,2022-09-18 16:20:37,15.08834537,0.0001766,53.2187,251.436,51.7162,308.3989,8.711700000000001e-05,1.098e-05,0.0,0 STARLINK-3516,1 51739U 22016AB  22261.68098919  .00001098  00000-0  87117-4 0  9995,2 51739  53.2187 251.4360 0001766  51.7162 308.3989 15.08834537 32139,6917.897,95.438,540.984,538.54,0.0
51739.0,STARLINK-3516,PAYLOAD,2022-09-19 05:03:42,15.08829928,0.0001934,53.2192,249.0516,47.9523,312.1633,0.00010989,1.461e-05,0.0,0 STARLINK-3516,1 51739U 22016AB  22262.21091220  .00001461  00000-0  10989-3 0  9999,2 51739  53.2192 249.0516 0001934  47.9523 312.1633 15.08829928 33336,6917.911,95.438,541.114,538.438,0.0
51739.0,STARLINK-3516,PAYLOAD,2022-09-19 08:14:29,15.08825466,0.0001916,53.219,248.4574,48.769,311.3467,6.9304e-05,8.15e-06,0.0,0 STARLINK-3516,1 51739U 22016AB  22262.34339740  .00000815  00000-0  69304-4 0  9993,2 51739  53.2190 248.4574 0001916  48.7690 311.3467 15.08825466 32232,6917.925,95.438,541.115,538.464,0.0
51739.0,STARLINK-3516,PAYLOAD,2022-09-19 17:46:48,15.08833354,0.0001766,53.2184,246.6763,52.4348,307.6805,9.113e-05,1.162e-05,0.0,0 STARLINK-3516,1 51739U 22016AB  22262.74083413  .00001162  00000-0  91130-4 0  9998,2 51739  53.2184 246.6763 0001766  52.4348 307.6805 15.08833354 32295,6917.901,95.438,540.987,538.544,0.0
51739.0,STARLINK-3516,PAYLOAD,2022-09-20 01:43:43,15.08839687,0.0001791,53.2183,245.1894,52.5953,307.5202,8.0059e-05,9.86e-06,0.0,0 STARLINK-3516,1 51739U 22016AB  22263.07203147  .00000986  00000-0  80059-4 0  9994,2 51739  53.2183 245.1894 0001791  52.5953 307.5202 15.08839687 33469,6917.880999999999,95.438,540.985,538.507,0.0
51739.0,STARLINK-3516,PAYLOAD,2022-09-20 08:05:15,15.08844043,0.0001763,53.2183,243.9994,53.8628,306.2527,0.00010994,1.462e-05,0.0,0 STARLINK-3516,1 51739U 22016AB  22263.33698764  .00001462  00000-0  10994-3 0  9996,2 51739  53.2183 243.9994 0001763  53.8628 306.2527 15.08844043 32386,6917.868,95.437,540.953,538.513,0.0
51739.0,STARLINK-3516,PAYLOAD,2022-09-20 17:37:34,15.088506400000002,0.0001706999999999,53.2183,242.2155,53.9808,306.1342,0.00011514,1.545e-05,0.0,0 STARLINK-3516,1 51739U 22016AB  22263.73442183  .00001545  00000-0  11514-3 0  9993,2 51739  53.2183 242.2155 0001707  53.9808 306.1342 15.08850640 32447,6917.848000000001,95.437,540.894,538.5319999999998,0.0
51739.0,STARLINK-3516,PAYLOAD,2022-09-21 01:34:30,15.08846552,0.0001669,53.2183,240.728,56.1172,303.9978,-5.0919e-06,-3.69e-06,0.0,0 STARLINK-3516,1 51739U 22016AB  22264.06562681 -.00000369  00000-0 -50919-5 0  9995,2 51739  53.2183 240.7280 0001669  56.1172 303.9978 15.08846552 33612,6917.86,95.437,540.88,538.571,0.0
51739.0,STARLINK-3516,PAYLOAD,2022-09-21 17:28:21,15.08845739,0.0001481,53.2186,237.7545,59.8615,300.2523,0.00011497,1.543e-05,0.0,0 STARLINK-3516,1 51739U 22016AB  22264.72802215  .00001543  00000-0  11497-3 0  9997,2 51739  53.2186 237.7545 0001481  59.8615 300.2523 15.08845739 32597,6917.863,95.437,540.752,538.703,0.0
51739.0,STARLINK-3516,PAYLOAD,2022-09-22 04:36:03,15.08837374,0.0001595999999999,53.2197,235.6753,36.3417,323.7684,-4.0406e-05,-9.31e-06,0.0,0 STARLINK-3516,1 51739U 22016AB  22265.19171240 -.00000931  00000-0 -40406-4 0  9991,2 51739  53.2197 235.6753 0001596  36.3417 323.7684 15.08837374 33780,6917.888000000001,95.438,540.8580000000002,538.649,0.0
51739.0,STARLINK-3516,PAYLOAD,2022-09-22 15:43:45,15.08846378,0.0001578,53.2184,233.5915,57.7075,302.407,-1.7236e-05,-5.62e-06,0.0,0 STARLINK-3516,1 51739U 22016AB  22265.65538469 -.00000562  00000-0 -17236-4 0  9997,2 51739  53.2184 233.5915 0001578  57.7075 302.4070 15.08846378 32731,6917.861,95.437,540.818,538.634,0.0
51739.0,STARLINK-3516,PAYLOAD,2022-09-23 04:26:51,15.08834659,0.0001706999999999,53.2188,231.2143,49.0476,311.0664,-1.9518e-05,-5.99e-06,0.0,0 STARLINK-3516,1 51739U 22016AB  22266.18531284 -.00000599  00000-0 -19518-4 0  9999,2 51739  53.2188 231.2143 0001707  49.0476 311.0664 15.08834659 32819,6917.897,95.438,540.943,538.581,0.0
51739.0,STARLINK-3516,PAYLOAD,2022-09-24 04:17:37,15.08843517,0.0001619,53.2186,226.7537,53.1807,306.9333,0.00015581,2.193e-05,0.0,0 STARLINK-3516,1 51739U 22016AB  22267.17890376  .00002193  00000-0  15581-3 0  9994,2 51739  53.2186 226.7537 0001619  53.1807 306.9333 15.08843517 34089,6917.87,95.437,540.855,538.615,0.0
51739.0,STARLINK-3516,PAYLOAD,2022-09-24 13:49:55,15.08865327,0.0001623,53.2183,224.9694,51.2617,308.8521,-0.00024594,-4.203e-05,0.0,0 STARLINK-3516,1 51739U 22016AB  22267.57633846 -.00004203  00000-0 -24594-3 0  9995,2 51739  53.2183 224.9694 0001623  51.2617 308.8521 15.08865327 34143,6917.803000000001,95.436,540.7909999999998,538.545,0.0
51739.0,STARLINK-3516,PAYLOAD,2022-09-25 04:08:24,15.08845157,0.0001664,53.2186,222.2918,52.4838,307.6305,0.00013272,1.825e-05,0.0,0 STARLINK-3516,1 51739U 22016AB  22268.17250311  .00001825  00000-0  13272-3 0  9990,2 51739  53.2186 222.2918 0001664  52.4838 307.6305 15.08845157 33111,6917.865,95.437,540.881,538.578,0.0
51739.0,STARLINK-3516,PAYLOAD,2022-09-26 02:23:49,15.08838643,0.0001834,53.2188,218.1299,48.8476,311.2674,-4.4677e-05,-9.99e-06,0.0,0 STARLINK-3516,1 51739U 22016AB  22269.09987279 -.00000999  00000-0 -44677-4 0  9999,2 51739  53.2188 218.1299 0001834  48.8476 311.2674 15.08838643 34376,6917.885,95.438,541.018,538.481,0.0
51739.0,STARLINK-3516,PAYLOAD,2022-09-26 13:31:31,15.08835441,0.0001908,53.2191,216.0477,47.5535,312.5619,-2.911e-05,-7.51e-06,0.0,0 STARLINK-3516,1 51739U 22016AB  22269.56355547 -.00000751  00000-0 -29110-4 0  9999,2 51739  53.2191 216.0477 0001908  47.5535 312.5619 15.08835441 33329,6917.894,95.438,541.0790000000002,538.439,0.0
51739.0,STARLINK-3516,PAYLOAD,2022-09-27 03:49:59,15.08825958,0.0001766,53.2193,213.3718,49.9505,310.1641,3.0158e-05,1.92e-06,0.0,0 STARLINK-3516,1 51739U 22016AB  22270.15972215  .00000192  00000-0  30158-4 0  9994,2 51739  53.2193 213.3718 0001766  49.9505 310.1641 15.08825958 34539,6917.9230000000025,95.438,541.01,538.567,0.0
